O3B FM5                 
1 39188U 13031A   22282.41481598 -.00000027  00000+0  00000+0 0  9991
2 39188   0.0639  16.7236 0002655 185.6642 157.6040  5.00115315169666
O3B FM4                 
1 39189U 13031B   22282.27093014 -.00000027  00000+0  00000+0 0  9998
2 39189   0.0506 352.0230 0002607 209.7202 158.2491  5.00115783169663
O3B FM2                 
1 39190U 13031C   22282.36234023 -.00000027  00000+0  00000+0 0  9997
2 39190   0.0505 346.3391 0002624 214.7490 158.9044  5.00115089169730
O3B PFM                 
1 39191U 13031D   22282.38864783 -.00000027  00000+0  00000+0 0  9992
2 39191   0.0573  11.0085 0002663 187.7452 161.2399  5.00115679169287
O3B FM3                 
1 40079U 14038A   22282.44343092 -.00000027  00000+0  00000+0 0  9999
2 40079   0.0537 359.8628 0004836 182.2806 177.8579  5.00115332145673
O3B FM7                 
1 40080U 14038B   22282.38950141 -.00000027  00000+0  00000+0 0  9993
2 40080   0.0558 355.7008 0001934 248.1335 116.1492  5.00115459150496
O3B FM6                 
1 40081U 14038C   22281.81621010 -.00000027  00000+0  00000+0 0  9991
2 40081   0.0527 359.3785 0002724 199.2418 161.3728  5.00115319150423
O3B FM8                 
1 40082U 14038D   22282.26990501 -.00000027  00000+0  00000+0 0  9996
2 40082   0.0506 356.7513 0002645 197.9581 165.2862  5.00115650150564
O3B FM10                
1 40348U 14083A   22282.29598333 -.00000027  00000+0  00000+0 0  9991
2 40348   0.0524   9.1666 0002635 189.5088 161.3183  5.00115142142510
O3B FM11                
1 40349U 14083B   22282.30942850 -.00000027  00000+0  00000+0 0  9991
2 40349   0.0570   7.7868 0002595 206.0857 146.1143  5.00115383142530
O3B FM12                
1 40350U 14083C   22282.33664281 -.00000027  00000+0  00000+0 0  9995
2 40350   0.0562   7.2005 0002788 193.3709 159.4208  5.00115218142546
O3B FM9                 
1 40351U 14083D   22282.16360629 -.00000027  00000+0  00000+0 0  9996
2 40351   0.0582   7.7992 0002619 192.2466 159.9472  5.00116111142686
DIAMOND RED             
1 42783U 17036U   22282.37853402  .00020034  00000+0  70519-3 0  9992
2 42783  97.1887 319.3144 0008210 286.8980  73.1361 15.29322398294340
DIAMOND GREEN           
1 42785U 17036W   22282.05206349  .00020127  00000+0  70851-3 0  9993
2 42785  97.1892 319.0627 0008024 289.6535  70.3840 15.29320677294362
DIAMOND BLUE            
1 42786U 17036X   22282.05120100  .00020194  00000+0  71098-3 0  9992
2 42786  97.1891 319.0538 0008075 290.2697  69.7675 15.29313392294360
LEO VANTAGE 1           
1 43113U 18004C   22282.23826286  .00006572  00000+0  52646-3 0  9993
2 43113  99.2440  14.4291 0399699 209.3158 148.5072 14.54268187240779
O3B FM15                
1 43231U 18024A   22282.42943800 -.00000027  00000+0  00000+0 0  9992
2 43231   0.0493  10.9998 0002961 189.7994 159.1922  5.00116009 83655
O3B FM16                
1 43232U 18024B   22282.28294267 -.00000027  00000+0  00000+0 0  9993
2 43232   0.0463  14.3501 0002943 186.9206 158.7204  5.00115869 83556
O3B FM14                
1 43233U 18024C   22282.32260506 -.00000027  00000+0  00000+0 0  9998
2 43233   0.0448  14.9772 0002798 188.7754 156.2379  5.00115293 83560
O3B FM13                
1 43234U 18024D   22282.37612513 -.00000027  00000+0  00000+0 0  9993
2 43234   0.0582  22.0369 0003756 183.7339 154.2139  5.00115062 83691
O3B FM20                
1 44112U 19020A   22282.34930903 -.00000027  00000+0  00000+0 0  9999
2 44112   0.0520   8.6207 0003144 198.1277 153.2387  5.00115423 64191
O3B FM19                
1 44113U 19020B   22282.37612565 -.00000027  00000+0  00000+0 0  9994
2 44113   0.0726  19.1129 0001745 205.2411 135.6354  5.00115097 64066
O3B FM17                
1 44114U 19020C   22282.45661318 -.00000027  00000+0  00000+0 0  9994
2 44114   0.0349 355.9573 0003083 205.1890 158.8443  5.00115530 64146
O3B FM18                
1 44115U 19020D   22281.20378065 -.00000027  00000+0  00000+0 0  9991
2 44115   0.0524   8.9265 0002893 188.5903 162.4762  5.00115727 64213
SALSAT                  
1 46495U 20068K   22282.40876122  .00005118  00000+0  36423-3 0  9995
2 46495  97.7367 223.8185 0014809 249.7033 110.2601 15.05005857111323
